UMBRA-09                
1 60541U 24149CB  26139.71462911  .00012591  00000+0  63871-3 0  9993
2 60541  97.6966 226.4552 0001301 123.6993 236.4364 15.17078350 96409
QPS-SAR-8 (AMATERU-IV)  
1 60542U 24149CC  26139.45175263  .00002661  00000+0  19809-3 0  9995
2 60542  97.6648 218.8499 0003184 185.8763 174.2426 15.03797920 95951
ICEYE-X39               
1 60546U 24149CG  26139.45529085  .00001100  00000+0  93917-4 0  9994
2 60546  97.6807 216.8708 0002691 172.9387 187.1874 14.99707369 95811
UMBRA-10                
1 60547U 24149CH  26139.71417250  .00011379  00000+0  57755-3 0  9992
2 60547  97.6973 226.4803 0002178 100.9954 259.1524 15.17081450 96416
ICEYE-X33               
1 60548U 24149CJ  26139.83516553  .00003199  00000+0  25583-3 0  9997
2 60548  97.7191 219.1466 0000204 298.0199  62.1004 15.00918147 95959
BRO-14                  
1 60551U 24149CM  26139.16939181  .00000746  00000+0  71351-4 0  9993
2 60551  97.6880 215.4685 0006553 180.1930 179.9290 14.96118392 95655
UM5-EOSAT               
1 60555U 24149CR  26139.18100166  .00001942  00000+0  15559-3 0  9998
2 60555  97.6657 218.2781 0007324 199.9135 160.1805 15.01298354 95862
LASARSAT                
1 62391U 24247Q   26139.21153896  .00019872  00000+0  42671-3 0  9995
2 62391  44.9757  64.7984 0005508 164.9742 195.1311 15.44422390 78839
CROCUBE                 
1 62394U 24247T   26139.82378561  .00028316  00000+0  57089-3 0  9995
2 62394  44.9734  59.1307 0005415 172.8847 187.2120 15.46082351 78959
TEVEL2-4                
1 63213U 25052D   26139.22054830  .00010800  00000+0  33580-3 0  9994
2 63213  97.3933  35.5841 0002432 158.4179 201.7167 15.33501761 65673
TEVEL2-5                
1 63214U 25052E   26139.69475723  .00012442  00000+0  38818-3 0  9997
2 63214  97.3932  36.0141 0002447 156.4351 203.7004 15.33357540 65742
TEVEL2-6                
1 63215U 25052F   26139.51061639  .00012484  00000+0  38998-3 0  9991
2 63215  97.3934  35.8146 0002522 158.6934 201.4413 15.33314552 65714
TEVEL2-1                
1 63217U 25052H   26139.46478593  .00012131  00000+0  38501-3 0  9997
2 63217  97.3909  35.4261 0001975 171.4829 188.6447 15.32818755 65692
TEVEL2-3                
1 63218U 25052J   26139.46040100  .00012064  00000+0  38231-3 0  9992
2 63218  97.3910  35.4402 0001994 170.9915 189.1364 15.32866874 65692
TEVEL2-2                
1 63219U 25052K   26139.66108219  .00012548  00000+0  39799-3 0  9998
2 63219  97.3908  35.6241 0001953 171.9496 188.1777 15.32830154 65726
TEVEL2-7                
1 63238U 25052AE  26139.24587484  .00009233  00000+0  31399-3 0  9993
2 63238  97.3973  34.5729 0004474 232.2001 127.8836 15.30658823 65592
HADES-ICM               
1 63492U 25052BN  26139.22363440  .02073343  39485-2  23686-2 0  9993
2 63492  97.3705  43.9782 0011715 191.1728 168.9297 16.09971905 66230
FORESAIL-1 PRIME        
1 66778U 25276DS  26139.66211814  .00003039  00000+0  15099-3 0  9997
2 66778  97.4205 213.4600 0002444 166.7371 193.3928 15.18409334 26072
