OBJECT_NAME,OBJECT_ID,EPOCH,MEAN_MOTION,ECCENTRICITY,INCLINATION,RA_OF_ASC_NODE,ARG_OF_PERICENTER,MEAN_ANOMALY,EPHEMERIS_TYPE,CLASSIFICATION_TYPE,NORAD_CAT_ID,ELEMENT_SET_NO,REV_AT_EPOCH,BSTAR,MEAN_MOTION_DOT,MEAN_MOTION_DDOT
UMBRA-09,2024-149CB,2026-05-19T17:09:03.955104,15.17078350,.0001301,97.6966,226.4552,123.6993,236.4364,0,U,60541,999,9640,.63871E-3,.12591E-3,0
QPS-SAR-8 (AMATERU-IV),2024-149CC,2026-05-19T10:50:31.427232,15.03797920,.0003185,97.6648,218.8499,185.8763,174.2426,0,U,60542,999,9595,.19809E-3,.2661E-4,0
ICEYE-X39,2024-149CG,2026-05-19T10:55:37.128576,14.99707369,.0002692,97.6807,216.8708,172.9387,187.1874,0,U,60546,999,9581,.93917E-4,.11E-4,0
UMBRA-10,2024-149CH,2026-05-19T17:08:24.504000,15.17081450,.0002179,97.6973,226.4803,100.9954,259.1524,0,U,60547,999,9641,.57755E-3,.11379E-3,0
ICEYE-X33,2024-149CJ,2026-05-19T20:02:38.300928,15.00918147,.0000204,97.7191,219.1466,298.0199,62.1004,0,U,60548,999,9595,.25583E-3,.3199E-4,0
BRO-14,2024-149CM,2026-05-19T04:03:55.452384,14.96118392,.00065533,97.6880,215.4685,180.1930,179.9290,0,U,60551,999,9565,.71350625E-4,.746E-5,0
UM5-EOSAT,2024-149CR,2026-05-19T04:20:38.543424,15.01298354,.00073241,97.6657,218.2781,199.9135,160.1805,0,U,60555,999,9586,.15558972E-3,.1942E-4,0
LASARSAT,2024-247Q,2026-05-19T05:04:36.966144,15.44422390,.0005508,44.9757,64.7984,164.9742,195.1311,0,U,62391,999,7883,.42671E-3,.19872E-3,0
CROCUBE,2024-247T,2026-05-19T19:46:15.075840,15.46082351,.0005415,44.9734,59.1307,172.8847,187.2120,0,U,62394,999,7895,.57089E-3,.28316E-3,0
TEVEL2-4,2025-052D,2026-05-19T05:17:35.373120,15.33501761,.0002432,97.3933,35.5841,158.4179,201.7167,0,U,63213,999,6567,.3358E-3,.108E-3,0
TEVEL2-5,2025-052E,2026-05-19T16:40:27.023808,15.33357540,.0002448,97.3932,36.0141,156.4351,203.7004,0,U,63214,999,6574,.38818E-3,.12442E-3,0
TEVEL2-6,2025-052F,2026-05-19T12:15:17.256096,15.33314552,.0002523,97.3934,35.8146,158.6934,201.4413,0,U,63215,999,6571,.38998E-3,.12484E-3,0
TEVEL2-1,2025-052H,2026-05-19T11:09:17.504352,15.32818755,.0001975,97.3909,35.4261,171.4829,188.6447,0,U,63217,999,6569,.38501E-3,.12131E-3,0
TEVEL2-3,2025-052J,2026-05-19T11:02:58.646400,15.32866874,.0001994,97.3910,35.4402,170.9915,189.1364,0,U,63218,999,6569,.38231E-3,.12064E-3,0
TEVEL2-2,2025-052K,2026-05-19T15:51:57.501216,15.32830154,.0001954,97.3908,35.6241,171.9496,188.1777,0,U,63219,999,6572,.39799E-3,.12548E-3,0
TEVEL2-7,2025-052AE,2026-05-19T05:54:03.586176,15.30658823,.0004474,97.3973,34.5729,232.2001,127.8836,0,U,63238,999,6559,.31399E-3,.9233E-4,0
HADES-ICM,2025-052BN,2026-05-19T05:22:02.012160,16.09971905,.0011715,97.3705,43.9782,191.1728,168.9297,0,U,63492,999,6623,.23686E-2,.2073343E-1,.39485E-2
FORESAIL-1 PRIME,2025-276DS,2026-05-19T15:53:27.007296,15.18409334,.0002445,97.4205,213.4600,166.7371,193.3928,0,U,66778,999,2607,.15099E-3,.3039E-4,0
